CCSDS_OMM_VERS = 2.0
CREATION_DATE  = 
ORIGINATOR     = 

OBJECT_NAME    = IDEFIX & ARIANE 42P R/B
OBJECT_ID      = 2002-021B
CENTER_NAME    = EARTH
REF_FRAME      = TEME
TIME_SYSTEM    = UTC
MEAN_ELEMENT_THEORY = SGP/SGP4

EPOCH          = 2026-02-08T06:27:30.606336
MEAN_MOTION    = 14.31004738
ECCENTRICITY   = .0010684
INCLINATION    = 98.5841
RA_OF_ASC_NODE = 338.2328
ARG_OF_PERICENTER = 275.5135
MEAN_ANOMALY   = 84.4830

EPHEMERIS_TYPE = 0
CLASSIFICATION_TYPE = U
NORAD_CAT_ID   = 27422
ELEMENT_SET_NO = 999
REV_AT_EPOCH   = 23981
BSTAR          = .16368233E-3
MEAN_MOTION_DOT = .387E-5
MEAN_MOTION_DDOT = 0

CCSDS_OMM_VERS = 2.0
CREATION_DATE  = 
ORIGINATOR     = 

OBJECT_NAME    = AQUA
OBJECT_ID      = 2002-022A
CENTER_NAME    = EARTH
REF_FRAME      = TEME
TIME_SYSTEM    = UTC
MEAN_ELEMENT_THEORY = SGP/SGP4

EPOCH          = 2026-02-08T06:26:35.802816
MEAN_MOTION    = 14.61903165
ECCENTRICITY   = .00015222
INCLINATION    = 98.4123
RA_OF_ASC_NODE = 6.1102
ARG_OF_PERICENTER = 53.2198
MEAN_ANOMALY   = 83.1220

EPHEMERIS_TYPE = 0
CLASSIFICATION_TYPE = U
NORAD_CAT_ID   = 27424
ELEMENT_SET_NO = 999
REV_AT_EPOCH   = 26443
BSTAR          = .2860647E-3
MEAN_MOTION_DOT = .1382E-4
MEAN_MOTION_DDOT = 0

CCSDS_OMM_VERS = 2.0
CREATION_DATE  = 
ORIGINATOR     = 

OBJECT_NAME    = CZ-4B R/B
OBJECT_ID      = 2002-024C
CENTER_NAME    = EARTH
REF_FRAME      = TEME
TIME_SYSTEM    = UTC
MEAN_ELEMENT_THEORY = SGP/SGP4

EPOCH          = 2026-02-08T03:26:11.522688
MEAN_MOTION    = 14.14542238
ECCENTRICITY   = .00511381
INCLINATION    = 98.8904
RA_OF_ASC_NODE = 92.6893
ARG_OF_PERICENTER = 106.7388
MEAN_ANOMALY   = 267.7321

EPHEMERIS_TYPE = 0
CLASSIFICATION_TYPE = U
NORAD_CAT_ID   = 27432
ELEMENT_SET_NO = 999
REV_AT_EPOCH   = 22506
BSTAR          = .43650511E-4
MEAN_MOTION_DOT = .41E-6
MEAN_MOTION_DDOT = 0

CCSDS_OMM_VERS = 2.0
CREATION_DATE  = 
ORIGINATOR     = 

OBJECT_NAME    = MIDORI II (ADEOS-II)
OBJECT_ID      = 2002-056A
CENTER_NAME    = EARTH
REF_FRAME      = TEME
TIME_SYSTEM    = UTC
MEAN_ELEMENT_THEORY = SGP/SGP4

EPOCH          = 2026-02-07T21:52:27.424128
MEAN_MOTION    = 14.29262129
ECCENTRICITY   = .0002129
INCLINATION    = 98.7717
RA_OF_ASC_NODE = 357.1939
ARG_OF_PERICENTER = 84.7966
MEAN_ANOMALY   = 275.3458

EPHEMERIS_TYPE = 0
CLASSIFICATION_TYPE = U
NORAD_CAT_ID   = 27597
ELEMENT_SET_NO = 999
REV_AT_EPOCH   = 20604
BSTAR          = .1823E-3
MEAN_MOTION_DOT = .418E-5
MEAN_MOTION_DDOT = 0

CCSDS_OMM_VERS = 2.0
CREATION_DATE  = 
ORIGINATOR     = 

OBJECT_NAME    = H-2A R/B
OBJECT_ID      = 2002-056E
CENTER_NAME    = EARTH
REF_FRAME      = TEME
TIME_SYSTEM    = UTC
MEAN_ELEMENT_THEORY = SGP/SGP4

EPOCH          = 2026-02-07T21:48:24.146784
MEAN_MOTION    = 14.33739178
ECCENTRICITY   = .0069033
INCLINATION    = 98.3149
RA_OF_ASC_NODE = 0.4180
ARG_OF_PERICENTER = 250.1156
MEAN_ANOMALY   = 173.7165

EPHEMERIS_TYPE = 0
CLASSIFICATION_TYPE = U
NORAD_CAT_ID   = 27601
ELEMENT_SET_NO = 999
REV_AT_EPOCH   = 20984
BSTAR          = .15384E-3
MEAN_MOTION_DOT = .396E-5
MEAN_MOTION_DDOT = 0

CCSDS_OMM_VERS = 2.0
CREATION_DATE  = 
ORIGINATOR     = 

OBJECT_NAME    = CZ-4B R/B
OBJECT_ID      = 2003-049C
CENTER_NAME    = EARTH
REF_FRAME      = TEME
TIME_SYSTEM    = UTC
MEAN_ELEMENT_THEORY = SGP/SGP4

EPOCH          = 2026-02-07T22:48:57.144960
MEAN_MOTION    = 14.54986943
ECCENTRICITY   = .0047504
INCLINATION    = 98.6848
RA_OF_ASC_NODE = 32.6968
ARG_OF_PERICENTER = 323.6614
MEAN_ANOMALY   = 36.1359

EPHEMERIS_TYPE = 0
CLASSIFICATION_TYPE = U
NORAD_CAT_ID   = 28059
ELEMENT_SET_NO = 999
REV_AT_EPOCH   = 18227
BSTAR          = .15227E-3
MEAN_MOTION_DOT = .613E-5
MEAN_MOTION_DDOT = 0

CCSDS_OMM_VERS = 2.0
CREATION_DATE  = 
ORIGINATOR     = 

OBJECT_NAME    = CZ-2C R/B
OBJECT_ID      = 2004-012C
CENTER_NAME    = EARTH
REF_FRAME      = TEME
TIME_SYSTEM    = UTC
MEAN_ELEMENT_THEORY = SGP/SGP4

EPOCH          = 2026-02-08T02:09:34.579584
MEAN_MOTION    = 15.61147170
ECCENTRICITY   = .00160023
INCLINATION    = 97.7307
RA_OF_ASC_NODE = 101.6490
ARG_OF_PERICENTER = 62.4894
MEAN_ANOMALY   = 297.7986

EPHEMERIS_TYPE = 0
CLASSIFICATION_TYPE = U
NORAD_CAT_ID   = 28222
ELEMENT_SET_NO = 999
REV_AT_EPOCH   = 19965
BSTAR          = .60637828E-3
MEAN_MOTION_DOT = .51605E-3
MEAN_MOTION_DDOT = 0

CCSDS_OMM_VERS = 2.0
CREATION_DATE  = 
ORIGINATOR     = 

OBJECT_NAME    = SL-16 R/B
OBJECT_ID      = 2004-021B
CENTER_NAME    = EARTH
REF_FRAME      = TEME
TIME_SYSTEM    = UTC
MEAN_ELEMENT_THEORY = SGP/SGP4

EPOCH          = 2026-02-08T02:40:14.475360
MEAN_MOTION    = 14.14589821
ECCENTRICITY   = .00029128
INCLINATION    = 70.9999
RA_OF_ASC_NODE = 294.5683
ARG_OF_PERICENTER = 83.8218
MEAN_ANOMALY   = 276.3236

EPHEMERIS_TYPE = 0
CLASSIFICATION_TYPE = U
NORAD_CAT_ID   = 28353
ELEMENT_SET_NO = 999
REV_AT_EPOCH   = 11865
BSTAR          = .78784447E-4
MEAN_MOTION_DOT = .104E-5
MEAN_MOTION_DDOT = 0

CCSDS_OMM_VERS = 2.0
CREATION_DATE  = 
ORIGINATOR     = 

OBJECT_NAME    = CZ-4B R/B
OBJECT_ID      = 2004-035C
CENTER_NAME    = EARTH
REF_FRAME      = TEME
TIME_SYSTEM    = UTC
MEAN_ELEMENT_THEORY = SGP/SGP4

EPOCH          = 2026-02-08T01:29:45.105504
MEAN_MOTION    = 15.28514030
ECCENTRICITY   = .00341671
INCLINATION    = 97.3549
RA_OF_ASC_NODE = 73.6661
ARG_OF_PERICENTER = 74.8659
MEAN_ANOMALY   = 285.6356

EPHEMERIS_TYPE = 0
CLASSIFICATION_TYPE = U
NORAD_CAT_ID   = 28415
ELEMENT_SET_NO = 999
REV_AT_EPOCH   = 17538
BSTAR          = .32351082E-3
MEAN_MOTION_DOT = .906E-4
MEAN_MOTION_DDOT = 0

CCSDS_OMM_VERS = 2.0
CREATION_DATE  = 
ORIGINATOR     = 

OBJECT_NAME    = CZ-2C R/B
OBJECT_ID      = 2004-046B
CENTER_NAME    = EARTH
REF_FRAME      = TEME
TIME_SYSTEM    = UTC
MEAN_ELEMENT_THEORY = SGP/SGP4

EPOCH          = 2026-02-08T05:54:07.344576
MEAN_MOTION    = 14.26981713
ECCENTRICITY   = .0138287
INCLINATION    = 98.1995
RA_OF_ASC_NODE = 316.0585
ARG_OF_PERICENTER = 241.7625
MEAN_ANOMALY   = 116.9539

EPHEMERIS_TYPE = 0
CLASSIFICATION_TYPE = U
NORAD_CAT_ID   = 28480
ELEMENT_SET_NO = 999
REV_AT_EPOCH   = 10430
BSTAR          = .85403717E-4
MEAN_MOTION_DOT = .188E-5
MEAN_MOTION_DDOT = 0

CCSDS_OMM_VERS = 2.0
CREATION_DATE  = 
ORIGINATOR     = 

OBJECT_NAME    = ARIANE 5 R/B
OBJECT_ID      = 2004-049H
CENTER_NAME    = EARTH
REF_FRAME      = TEME
TIME_SYSTEM    = UTC
MEAN_ELEMENT_THEORY = SGP/SGP4

EPOCH          = 2026-02-08T01:22:34.568256
MEAN_MOTION    = 14.85204764
ECCENTRICITY   = .00855065
INCLINATION    = 98.2579
RA_OF_ASC_NODE = 206.4158
ARG_OF_PERICENTER = 87.2037
MEAN_ANOMALY   = 273.8960

EPHEMERIS_TYPE = 0
CLASSIFICATION_TYPE = U
NORAD_CAT_ID   = 28499
ELEMENT_SET_NO = 999
REV_AT_EPOCH   = 14139
BSTAR          = .14561675E-3
MEAN_MOTION_DOT = .1269E-4
MEAN_MOTION_DDOT = 0

CCSDS_OMM_VERS = 2.0
CREATION_DATE  = 
ORIGINATOR     = 

OBJECT_NAME    = CZ-2D R/B
OBJECT_ID      = 2005-024B
CENTER_NAME    = EARTH
REF_FRAME      = TEME
TIME_SYSTEM    = UTC
MEAN_ELEMENT_THEORY = SGP/SGP4

EPOCH          = 2026-02-07T23:41:00.255264
MEAN_MOTION    = 15.57548309
ECCENTRICITY   = .0007377
INCLINATION    = 97.3623
RA_OF_ASC_NODE = 53.1046
ARG_OF_PERICENTER = 118.5696
MEAN_ANOMALY   = 241.6303

EPHEMERIS_TYPE = 0
CLASSIFICATION_TYPE = U
NORAD_CAT_ID   = 28738
ELEMENT_SET_NO = 999
REV_AT_EPOCH   = 13515
BSTAR          = .54438E-3
MEAN_MOTION_DOT = .40172E-3
MEAN_MOTION_DDOT = 0

